{"type": "FeatureCollection", "features": [ {"type": "Feature", "properties": {"norad_id": 38143, "name": "FENGYUN 1C DEB", "group": "fengyun-1c-debris", "lat": -45.45336561328049, "lon": 41.531109449907134, "alt_km": 865.7547934279537, "timestamp": "2025-12-02T06:27:53.303140+00:00", "meta": {"OBJECT_NAME": "FENGYUN 1C DEB", "OBJECT_ID": "1999-025EQQ", "EPOCH": "2025-11-30T10:14:32.518464", "MEAN_MOTION": 14.04858447, "ECCENTRICITY": 0.00553619, "INCLINATION": 99.0297, "RA_OF_ASC_NODE": 30.4011, "ARG_OF_PERICENTER": 255.2443, "MEAN_ANOMALY": 104.2585, "EPHEMERIS_TYPE": 0, "CLASSIFICATION_TYPE": "U", "NORAD_CAT_ID": 38143, "ELEMENT_SET_NO": 999, "REV_AT_EPOCH": 60110, "BSTAR": 0.00066489823, "MEAN_MOTION_DOT": 1.037e-05, "MEAN_MOTION_DDOT": 0}, "tle": {"line1": "1 38143U 99025EQQ 25334.42676526  .00001037  00000+0  66490-3 0  9997", "line2": "2 38143  99.0297  30.4011 0055361 255.2443 104.2585 14.04858447601109"}}, "geometry": {"type": "Point", "coordinates": [41.531109449907134, -45.45336561328049]}}, {"type": "Feature", "properties": {"norad_id": 38144, "name": "FENGYUN 1C DEB", "group": "fengyun-1c-debris", "lat": -58.58571965288937, "lon": -33.381429781286386, "alt_km": 844.266404635192, "timestamp": "2025-12-02T06:27:53.303150+00:00", "meta": {"OBJECT_NAME": "FENGYUN 1C DEB", "OBJECT_ID": "1999-025EQR", "EPOCH": "2025-11-30T05:34:28.265376", "MEAN_MOTION": 13.58961896, "ECCENTRICITY": 0.02908675, "INCLINATION": 98.9697, "RA_OF_ASC_NODE": 159.7393, "ARG_OF_PERICENTER": 223.9628, "MEAN_ANOMALY": 133.8043, "EPHEMERIS_TYPE": 0, "CLASSIFICATION_TYPE": "U", "NORAD_CAT_ID": 38144, "ELEMENT_SET_NO": 999, "REV_AT_EPOCH": 60867, "BSTAR": 0.0017584648, "MEAN_MOTION_DOT": 1.663e-05, "MEAN_MOTION_DDOT": 0}, "tle": {"line1": "1 38144U 99025EQR 25334.23227159  .00001663  00000+0  17585-2 0  9996", "line2": "2 38144  98.9697 159.7393 0290867 223.9628 133.8043 13.58961896608676"}}, "geometry": {"type": "Point", "coordinates": [-33.381429781286386, -58.58571965288937]}}, {"type": "Feature", "properties": {"norad_id": 38146, "name": "FENGYUN 1C DEB", "group": "fengyun-1c-debris", "lat": -8.738755765489083, "lon": 56.76989699777043, "alt_km": 814.13586382634, "timestamp": "2025-12-02T06:27:53.303160+00:00", "meta": {"OBJECT_NAME": "FENGYUN 1C DEB", "OBJECT_ID": "1999-025EQT", "EPOCH": "2025-12-01T11:02:48.380352", "MEAN_MOTION": 14.58998899, "ECCENTRICITY": 0.02030436, "INCLINATION": 99.4847, "RA_OF_ASC_NODE": 54.3737, "ARG_OF_PERICENTER": 136.7569, "MEAN_ANOMALY": 288.6855, "EPHEMERIS_TYPE": 0, "CLASSIFICATION_TYPE": "U", "NORAD_CAT_ID": 38146, "ELEMENT_SET_NO": 999, "REV_AT_EPOCH": 31715, "BSTAR": 0.0015118762, "MEAN_MOTION_DOT": 9.407e-05, "MEAN_MOTION_DDOT": 0}, "tle": {"line1": "1 38146U 99025EQT 25335.46028218  .00009407  00000+0  15119-2 0  9994", "line2": "2 38146  99.4847  54.3737 0203043 136.7569 288.6855 14.58998899317152"}}, "geometry": {"type": "Point", "coordinates": [56.76989699777043, -8.738755765489083]}}, {"type": "Feature", "properties": {"norad_id": 38147, "name": "FENGYUN 1C DEB", "group": "fengyun-1c-debris", "lat": 63.19260819914948, "lon": -26.563529818685605, "alt_km": 810.3244443529593, "timestamp": "2025-12-02T06:27:53.303169+00:00", "meta": {"OBJECT_NAME": "FENGYUN 1C DEB", "OBJECT_ID": "1999-025EQU", "EPOCH": "2025-11-29T07:18:26.920800", "MEAN_MOTION": 14.23385127, "ECCENTRICITY": 0.0050737, "INCLINATION": 98.5592, "RA_OF_ASC_NODE": 347.8933, "ARG_OF_PERICENTER": 338.7731, "MEAN_ANOMALY": 21.1342, "EPHEMERIS_TYPE": 0, "CLASSIFICATION_TYPE": "U", "NORAD_CAT_ID": 38147, "ELEMENT_SET_NO": 999, "REV_AT_EPOCH": 60196, "BSTAR": 0.00059773367, "MEAN_MOTION_DOT": 1.331e-05, "MEAN_MOTION_DDOT": 0}, "tle": {"line1": "1 38147U 99025EQU 25333.30447825  .00001331  00000+0  59773-3 0  9998", "line2": "2 38147  98.5592 347.8933 0050737 338.7731  21.1342 14.23385127601965"}}, "geometry": {"type": "Point", "coordinates": [-26.563529818685605, 63.19260819914948]}}, {"type": "Feature", "properties": {"norad_id": 38149, "name": "FENGYUN 1C DEB", "group": "fengyun-1c-debris", "lat": 67.0533098807269, "lon": 169.30287473128237, "alt_km": 789.4785366146107, "timestamp": "2025-12-02T06:27:53.303179+00:00", "meta": {"OBJECT_NAME": "FENGYUN 1C DEB", "OBJECT_ID": "1999-025EQW", "EPOCH": "2025-11-29T17:18:38.273184", "MEAN_MOTION": 14.25896851, "ECCENTRICITY": 0.00772182, "INCLINATION": 98.3564, "RA_OF_ASC_NODE": 326.5585, "ARG_OF_PERICENTER": 199.5294, "MEAN_ANOMALY": 160.2925, "EPHEMERIS_TYPE": 0, "CLASSIFICATION_TYPE": "U", "NORAD_CAT_ID": 38149, "ELEMENT_SET_NO": 999, "REV_AT_EPOCH": 70302, "BSTAR": 0.00022143225, "MEAN_MOTION_DOT": 5.03e-06, "MEAN_MOTION_DDOT": 0}, "tle": {"line1": "1 38149U 99025EQW 25333.72127631  .00000503  00000+0  22143-3 0  9997", "line2": "2 38149  98.3564 326.5585 0077218 199.5294 160.2925 14.25896851703026"}}, "geometry": {"type": "Point", "coordinates": [169.30287473128237, 67.0533098807269]}}, {"type": "Feature", "properties": {"norad_id": 38155, "name": "FENGYUN 1C DEB", "group": "fengyun-1c-debris", "lat": 79.91597889796873, "lon": -175.64500172212217, "alt_km": 782.4678983215572, "timestamp": "2025-12-02T06:27:53.303189+00:00", "meta": {"OBJECT_NAME": "FENGYUN 1C DEB", "OBJECT_ID": "1999-025ERC", "EPOCH": "2025-11-23T23:11:37.353120", "MEAN_MOTION": 14.24801471, "ECCENTRICITY": 0.00959279, "INCLINATION": 98.4446, "RA_OF_ASC_NODE": 233.0188, "ARG_OF_PERICENTER": 183.3275, "MEAN_ANOMALY": 176.7278, "EPHEMERIS_TYPE": 0, "CLASSIFICATION_TYPE": "U", "NORAD_CAT_ID": 38155, "ELEMENT_SET_NO": 999, "REV_AT_EPOCH": 63508, "BSTAR": 0.0025040606, "MEAN_MOTION_DOT": 6.088e-05, "MEAN_MOTION_DDOT": 0}, "tle": {"line1": "1 38155U 99025ERC 25327.96640455  .00006088  00000+0  25041-2 0  9990", "line2": "2 38155  98.4446 233.0188 0095927 183.3275 176.7278 14.24801471635087"}}, "geometry": {"type": "Point", "coordinates": [-175.64500172212217, 79.91597889796873]}}, {"type": "Feature", "properties": {"norad_id": 38157, "name": "FENGYUN 1C DEB", "group": "fengyun-1c-debris", "lat": -76.8568676465842, "lon": 15.423401466370116, "alt_km": 913.0188272223986, "timestamp": "2025-12-02T06:27:53.303198+00:00", "meta": {"OBJECT_NAME": "FENGYUN 1C DEB", "OBJECT_ID": "1999-025ERE", "EPOCH": "2025-11-30T11:02:04.700832", "MEAN_MOTION": 14.2166879, "ECCENTRICITY": 0.02738267, "INCLINATION": 99.6556, "RA_OF_ASC_NODE": 240.2532, "ARG_OF_PERICENTER": 148.8202, "MEAN_ANOMALY": 212.9547, "EPHEMERIS_TYPE": 0, "CLASSIFICATION_TYPE": "U", "NORAD_CAT_ID": 38157, "ELEMENT_SET_NO": 999, "REV_AT_EPOCH": 76073, "BSTAR": 0.00056081552, "MEAN_MOTION_DOT": 1.746e-05, "MEAN_MOTION_DDOT": 0}, "tle": {"line1": "1 38157U 99025ERE 25334.45977663  .00001746  00000+0  56082-3 0  9994", "line2": "2 38157  99.6556 240.2532 0273826 148.8202 212.9547 14.21668790760734"}}, "geometry": {"type": "Point", "coordinates": [15.423401466370116, -76.8568676465842]}}, {"type": "Feature", "properties": {"norad_id": 38159, "name": "FENGYUN 1C DEB", "group": "fengyun-1c-debris", "lat": -65.45614964783245, "lon": -111.25949640588169, "alt_km": 879.2336169675664, "timestamp": "2025-12-02T06:27:53.303208+00:00", "meta": {"OBJECT_NAME": "FENGYUN 1C DEB", "OBJECT_ID": "1999-025ERG", "EPOCH": "2025-11-26T10:28:43.302720", "MEAN_MOTION": 14.03426914, "ECCENTRICITY": 0.00573234, "INCLINATION": 99.3154, "RA_OF_ASC_NODE": 221.7049, "ARG_OF_PERICENTER": 25.5121, "MEAN_ANOMALY": 334.8854, "EPHEMERIS_TYPE": 0, "CLASSIFICATION_TYPE": "U", "NORAD_CAT_ID": 38159, "ELEMENT_SET_NO": 999, "REV_AT_EPOCH": 82883, "BSTAR": 0.00052980182, "MEAN_MOTION_DOT": 7.94e-06, "MEAN_MOTION_DDOT": 0}, "tle": {"line1": "1 38159U 99025ERG 25330.43661230  .00000794  00000+0  52980-3 0  9995", "line2": "2 38159  99.3154 221.7049 0057323  25.5121 334.8854 14.03426914828838"}}, "geometry": {"type": "Point", "coordinates": [-111.25949640588169, -65.45614964783245]}}, {"type": "Feature", "properties": {"norad_id": 38163, "name": "FENGYUN 1C DEB", "group": "fengyun-1c-debris", "lat": 56.752385535944114, "lon": -153.07987158470365, "alt_km": 915.1790371009602, "timestamp": "2025-12-02T06:27:53.303218+00:00", "meta": {"OBJECT_NAME": "FENGYUN 1C DEB", "OBJECT_ID": "1999-025ERL", "EPOCH": "2025-11-30T07:45:44.208576", "MEAN_MOTION": 14.05865399, "ECCENTRICITY": 0.00755563, "INCLINATION": 99.1302, "RA_OF_ASC_NODE": 10.7596, "ARG_OF_PERICENTER": 277.0188, "MEAN_ANOMALY": 82.2391, "EPHEMERIS_TYPE": 0, "CLASSIFICATION_TYPE": "U", "NORAD_CAT_ID": 38163, "ELEMENT_SET_NO": 999, "REV_AT_EPOCH": 24367, "BSTAR": 0.00091380149, "MEAN_MOTION_DOT": 1.487e-05, "MEAN_MOTION_DDOT": 0}, "tle": {"line1": "1 38163U 99025ERL 25334.32342834  .00001487  00000+0  91380-3 0  9995", "line2": "2 38163  99.1302  10.7596 0075556 277.0188  82.2391 14.05865399243673"}}, "geometry": {"type": "Point", "coordinates": [-153.07987158470365, 56.752385535944114]}}, {"type": "Feature", "properties": {"norad_id": 38166, "name": "FENGYUN 1C DEB", "group": "fengyun-1c-debris", "lat": 34.97826316455614, "lon": -94.69189151432928, "alt_km": 772.2916138618675, "timestamp": "2025-12-02T06:27:53.303228+00:00", "meta": {"OBJECT_NAME": "FENGYUN 1C DEB", "OBJECT_ID": "1999-025ERP", "EPOCH": "2025-11-30T13:30:52.102656", "MEAN_MOTION": 14.30674225, "ECCENTRICITY": 0.0053782, "INCLINATION": 99.078, "RA_OF_ASC_NODE": 77.1051, "ARG_OF_PERICENTER": 81.5257, "MEAN_ANOMALY": 279.2015, "EPHEMERIS_TYPE": 0, "CLASSIFICATION_TYPE": "U", "NORAD_CAT_ID": 38166, "ELEMENT_SET_NO": 999, "REV_AT_EPOCH": 63598, "BSTAR": 0.0029439, "MEAN_MOTION_DOT": 7.779e-05, "MEAN_MOTION_DDOT": 0}, "tle": {"line1": "1 38166U 99025ERP 25334.56310304  .00007779  00000+0  29439-2 0  9996", "line2": "2 38166  99.0780  77.1051 0053782  81.5257 279.2015 14.30674225635984"}}, "geometry": {"type": "Point", "coordinates": [-94.69189151432928, 34.97826316455614]}}]}